0 SHIYAN 10 (SY-10)
1 49258U 21087A   23316.81141623  .00000348  00000-0  00000-0 0  9992
2 49258  63.7348 332.5980 7027740 269.8969  16.6514  2.00609631 15520
0 COSMOS 2552
1 49503U 21113A   23315.83461722 -.00000985  00000-0  00000-0 0  9999
2 49503  63.3166 304.9427 6894776 270.8917  17.3790  2.00604258 14388
0 MERIDIAN 10
1 52145U 22030A   23317.84010514  .00000080  00000-0  00000+0 0  9990
2 52145  62.6514 242.9964 6949357 273.4109  16.2158  2.00612293 12032
0 COSMOS 2563
1 54223U 22145A   23318.07883326 -.00000605  00000-0  00000+0 0  9995
2 54223  63.8712  46.4352 7141090 269.1368  16.1323  2.00610350  7556
0 SHIYAN 10 02 (SY-10 02)
1 54878U 22178A   23316.02526825  .00001033  00000-0  00000+0 0  9993
2 54878  63.5335  77.3901 7038289 269.2168 342.8568  2.00654599  6391
0 INMARSAT 6-F2
1 55683U 23022A   23317.85022807  .00000030  00000-0  00000-0 0  9997
2 55683   3.4099  22.4786 2998436 210.8133 136.0491  1.00950687  1003
0 SYRACUSE 4B
1 57214U 23093B   23316.19563355 -.00000091  00000-0  00000-0 0  9999
2 57214   0.9818  64.3186 3486265 212.8057 156.6196  1.12732044    68
